IRIDIUM 150             
1 43257U 18030J   25191.63124250  .00000016  00000+0 -13712-5 0  9990
2 43257  86.3942  73.2617 0001815  82.0679 278.0723 14.34217638381200
IRIDIUM 143             
1 43258U 18030K   25191.75175144  .00000012  00000+0 -26425-5 0  9993
2 43258  86.3947  73.2907 0001570  81.0511 279.0863 14.34217587381186
IRIDIUM 161             
1 43478U 18047C   25191.57594831  .00000220  00000+0  59349-4 0  9993
2 43478  86.4478 231.1632 0002613  92.1079 268.0421 14.43282064375869
IRIDIUM 152             
1 43479U 18047D   25191.58493404  .00000040  00000+0  70722-5 0  9998
2 43479  86.3953 231.0201 0002430  90.0567 270.0907 14.34217781373521
IRIDIUM 147             
1 43480U 18047E   25191.59127661  .00000048  00000+0  10016-4 0  9997
2 43480  86.3955 231.0165 0002379  95.3901 264.7566 14.34217775373520
IRIDIUM 110             
1 43481U 18047F   25191.59761992  .00000006  00000+0 -47729-5 0  9996
2 43481  86.3960 231.0967 0002716  92.7999 267.3508 14.34217560373516
IRIDIUM 162             
1 43482U 18047G   25191.56964094  .00000217  00000+0  58535-4 0  9991
2 43482  86.4477 231.0608 0002704  87.9317 272.2193 14.43283472375859
IRIDIUM 160             
1 43569U 18061A   25191.54345494  .00000063  00000+0  15295-4 0  9993
2 43569  86.3982 199.5266 0002535  90.3677 269.7809 14.34218120364404
